{"fetched_at":"2026-04-21T09:27:44Z","count":11060,"tles":[{"name":"ONEWEB-0622","line1":"1 55163U 23004Z   26110.49007384 -.00000304  00000+0 -89429-3 0  9997","line2":"2 55163  87.8931  32.5336 0001133  83.8350 276.2907 13.11415264158235","category":"Other"},{"name":"STARLINK-36587","line1":"1 67532U 26014A   26110.59516440  .00213868  00000+0  13944-2 0  9990","line2":"2 67532  97.2834 357.6469 0003028  70.1945 289.9646 15.75266012 15170","category":"Starlink"},{"name":"STARLINK-3900","line1":"1 52461U 22049L   26110.33829579 -.00001811  00000+0 -95743-4 0  9995","line2":"2 52461  53.2173 222.1518 0000879  71.4239 288.6849 15.08832428218672","category":"Starlink"},{"name":"CZ-2F DEB","line1":"1 59594U 24078D   24119.06132642  .38721847  72850-5  24546-2 0  9994","line2":"2 59594  41.5973  28.4800 0063503 152.0982 294.6586 16.31592083   377","category":"Other"},{"name":"STARLINK-35349","line1":"1 65835U 25221N   26110.39585458  .00018585  00000+0  63802-3 0  9994","line2":"2 65835  53.1599 254.9859 0001331 108.5286 251.5859 15.30201767 31114","category":"Starlink"},{"name":"STARLINK-30118","line1":"1 56696U 23067J   23188.29875987  .27818384  95589-5  26184-3 0  9993","line2":"2 56696  42.9872 160.8594 0000010 200.4965 264.8024 16.51299425  7878","category":"Starlink"},{"name":"STARLINK-11430 [DTC]","line1":"1 62916U 25027K   26110.43907392  .00152525  00000+0  11695-2 0  9990","line2":"2 62916  43.0030  96.4183 0001596 255.6106 104.4585 15.70860644 69758","category":"Starlink"},{"name":"KUIPER-00244","line1":"1 68583U 26072L   26107.88437885  .00011726  00000+0  31917-3 0  9994","line2":"2 68583  51.8745 108.5083 0003945 138.9534 221.1750 15.37949324  2109","category":"Other"},{"name":"FENGYUN 1C DEB","line1":"1 32356U 99025CYZ 26104.51305067  .00002001  00000+0  12172-2 0  9991","line2":"2 32356 102.4965  17.2132 0123908  77.2181 284.2787 14.04334360701108","category":"Weather"},{"name":"OSCAR 23","line1":"1 19070U 88033A   26105.20457824  .00000035  00000+0  53753-4 0  9999","line2":"2 19070  90.3326  20.2761 0188589 196.5401 319.9135 13.27808218838915","category":"Other"},{"name":"CORVUS BC2","line1":"1 42846U 17042X   26110.39338361  .00002533  00000+0  17798-3 0  9991","line2":"2 42846  97.4011 274.0244 0011984 313.8224  46.2012 15.05922706478367","category":"Other"},{"name":"COSMOS 2251 DEB","line1":"1 35786U 93036ASG 26104.90752533  .00001954  00000+0  34498-3 0  9996","line2":"2 35786  74.0130 165.7579 0036935 263.3318  96.3647 14.67752998752140","category":"Other"},{"name":"FENGYUN 1C DEB","line1":"1 29886U 99025GG  23179.07516130  .00011754  00000+0  31373-2 0  9999","line2":"2 29886  99.2208 215.4979 0025731 276.3420 137.9792 14.48357381856689","category":"Weather"},{"name":"STARLINK-1328","line1":"1 45576U 20025AX  26015.11706593  .08888197  12444-4  37069-3 0  9998","line2":"2 45576  53.0340 249.0042 0005250 260.7760  99.2694 16.43463426318397","category":"Starlink"},{"name":"CZ-5 R/B","line1":"1 58583U 23197B   24014.29999381  .00004312  00000+0  19598-2 0  9995","line2":"2 58583  19.0075 297.9134 7175664 201.2602  99.1368  2.39958679   719","category":"Other"},{"name":"STARLINK-34482","line1":"1 64782U 25147AD  26110.55636941  .00028020  00000+0  95424-3 0  9993","line2":"2 64782  53.1624  48.1385 0000704 121.7475 238.3594 15.30211712 45205","category":"Starlink"},{"name":"ASTRA 1L","line1":"1 31306U 07016A   26110.42753093 -.00000185  00000+0  00000+0 0  9993","line2":"2 31306   1.1728  81.9390 0004372 321.9066 294.0691  1.00272089 44409","category":"Other"},{"name":"STARLINK-2043","line1":"1 47659U 21012AR  23362.25524183  .00015691  00000+0  10696-2 0  9998","line2":"2 47659  53.0552 313.8888 0001386  79.7544 280.3601 15.06411222160197","category":"Starlink"},{"name":"HUMSAT-D","line1":"1 39433U 13066T   26068.77891092  .07089284  25853-5  14695-2 0  9996","line2":"2 39433  97.4699  82.1645 0007750 211.8767 148.2059 16.31051261671486","category":"Other"},{"name":"STARLINK-5327","line1":"1 55291U 23010Y   26110.60064692  .00000513  00000+0  50816-4 0  9993","line2":"2 55291  69.9987 278.9141 0002501 270.0552  90.0321 14.98335791179544","category":"Starlink"},{"name":"STARLINK-11301 [DTC]","line1":"1 61885U 24204M   26110.36731046 -.00001674  00000+0 -89604-5 0  9991","line2":"2 61885  53.1587 150.5788 0001374 105.3309 254.7861 15.69703353 83465","category":"Starlink"},{"name":"STARLINK-36629","line1":"1 67596U 26018H   26110.45376760  .00010798  00000+0  32758-3 0  9990","line2":"2 67596  97.2835 176.0552 0001075  83.0303 277.1063 15.34282463 13733","category":"Starlink"},{"name":"STARLINK-31885","line1":"1 59660U 24084G   26110.41250187 -.00000941  00000+0 -24699-4 0  9991","line2":"2 59660  42.9999 162.7486 0000873 216.0500 144.0293 15.27573636110792","category":"Starlink"},{"name":"STARLINK-35272","line1":"1 65899U 25224T   26110.39662799  .00033315  00000+0  11323-2 0  9999","line2":"2 65899  53.1577 177.3407 0001636 120.9927 239.1235 15.30188608 31258","category":"Starlink"},{"name":"STARLINK-6197","line1":"1 56767U 23078A   26110.60990573  .00011603  00000+0  56691-3 0  9990","line2":"2 56767  69.9906 240.7516 0002362 138.8806 221.2541 15.18428383158918","category":"Starlink"},{"name":"STARLINK-11576 [DTC]","line1":"1 62993U 25031N   26110.47917043  .00171727  00000+0  13138-2 0  9997","line2":"2 62993  43.0026 109.6649 0001269 258.4371 101.6355 15.70849729 69300","category":"Starlink"},{"name":"QIANFAN-120","line1":"1 68647U 26075M   26110.52048123  .00000188  00000+0  78294-4 0  9996","line2":"2 68647  88.9906 327.2184 0014812 172.3771 187.7649 14.22211703  1842","category":"Other"},{"name":"AMOS-3","line1":"1 32794U 08022A   26110.29063692  .00000021  00000+0  00000+0 0  9995","line2":"2 32794   0.3060  86.7152 0000479 172.2755  53.0963  1.00451657 81750","category":"Other"},{"name":"STARLINK-30213","line1":"1 57504U 23113K   26110.42180695 -.00003557  00000+0 -12297-3 0  9991","line2":"2 57504  43.0020 140.7063 0001595 248.7114 111.3567 15.26741048150053","category":"Starlink"},{"name":"STARLINK-11699 [DTC]","line1":"1 63762U 25089M   26110.22548971  .00176145  00000+0  13462-2 0  9997","line2":"2 63762  43.0006  42.2673 0001295 275.9161  84.1559 15.70860274 56666","category":"Starlink"},{"name":"FENGYUN 1C DEB","line1":"1 29958U 99025KG  26104.91745778  .00000202  00000+0  12589-3 0  9990","line2":"2 29958  98.6629 120.6701 0054080 341.4424  18.4776 14.14603062991921","category":"Weather"},{"name":"STARLINK-1403","line1":"1 45701U 20035AW  26110.66668981  .00073399  00000+0  24722-2 0  9996","line2":"2 45701  53.1546 201.7346 0001682  27.1414 251.9226 15.30117776  5866","category":"Starlink"},{"name":"COSMOS 2251 DEB","line1":"1 35962U 93036AVC 23167.49231806  .00020031  00000+0  46201-2 0  9998","line2":"2 35962  74.0110 102.6143 0033220  18.1584 342.0757 14.54896339741411","category":"Other"},{"name":"STARLINK-4485","line1":"1 53541U 22101Q   26110.38199269 -.00000515  00000+0 -14248-4 0  9996","line2":"2 53541  53.2156 246.9574 0001316  92.6560 267.4583 15.08834873203151","category":"Starlink"},{"name":"YAOGAN-43 01G","line1":"1 60464U 24148G   26110.56593800  .00005153  00000+0  17931-3 0  9992","line2":"2 60464  35.0019 154.7697 0006057 331.5274  28.5111 15.29044165 93458","category":"Other"},{"name":"STARLINK-36052","line1":"1 66605U 25270T   26110.46788597  .00014637  00000+0  54069-3 0  9990","line2":"2 66605  42.9984 180.3762 0001443 269.2549  90.8137 15.27559173 24095","category":"Starlink"},{"name":"SHIYAN-24C 01","line1":"1 58650U 23206A   26110.77637341  .00001094  00000+0  97295-4 0  9994","line2":"2 58650  97.4017  81.4921 0003829  34.2579 325.8890 14.97977339126712","category":"Other"},{"name":"STARLINK-34736","line1":"1 64846U 25152E   26110.32321610  .00000624  00000+0  47416-4 0  9998","line2":"2 64846  97.5968 326.5558 0002288  90.2362 269.9126 15.05653483 41684","category":"Starlink"},{"name":"FENGYUN 1C DEB","line1":"1 31410U 99025BSW 26104.96819818  .00001149  00000+0  31674-3 0  9995","line2":"2 31410  98.8497 276.6226 0108592 277.9119 237.0003 14.45572917995315","category":"Weather"},{"name":"STARLINK-2168","line1":"1 47751U 21017AF  23361.82026705  .00004304  00000+0  30741-3 0  9998","line2":"2 47751  53.0544 195.8420 0001643  94.1206 265.9971 15.06430006157009","category":"Starlink"},{"name":"BREEZE-M R/B","line1":"1 39614U 14010C   26104.07037922 -.00000132  00000+0  00000+0 0  9997","line2":"2 39614  10.8097  59.7865 0671066  50.5901 315.1357  0.90580211 39920","category":"Other"},{"name":"STARLINK-5639","line1":"1 55365U 23013AL  26110.43068008 -.00000754  00000+0 -31321-4 0  9993","line2":"2 55365  43.0046  84.3671 0001211 274.4112  85.6595 15.11065853177860","category":"Starlink"},{"name":"STARLINK-11424 [DTC]","line1":"1 61949U 24209L   26110.41997599  .00096894  00000+0  79507-3 0  9995","line2":"2 61949  53.1567 165.4320 0001252 107.1078 253.0077 15.69717489 83230","category":"Starlink"},{"name":"STARLINK-36673","line1":"1 67660U 26022N   26109.59975007 -.00005619  00000+0 -16748-3 0  9998","line2":"2 67660  97.2820 143.3757 0001785  96.4961 263.6486 15.34255997 11840","category":"Starlink"},{"name":"STARLINK-31836","line1":"1 59724U 24088S   26109.72809580 -.00000687  00000+0 -11080-4 0  9992","line2":"2 59724  53.1601 309.4093 0001114  99.4535 260.6592 15.30185269109960","category":"Starlink"},{"name":"KUIPER-00137","line1":"1 65963U 25228S   26110.37743701  .00001999  00000+0  29109-3 0  9991","line2":"2 65963  51.9020 161.2760 0000427  98.7804 261.3207 14.79944759 29618","category":"Other"},{"name":"STARLINK-30143","line1":"1 56831U 23079J   23162.46411326  .11974390  89153-5  47445-2 0  9996","line2":"2 56831  42.9961 171.6034 0003185 197.0988 288.7950 16.22741372  1901","category":"Starlink"},{"name":"STARLINK-11406 [DTC]","line1":"1 63057U 25035F   26110.41332844  .00130127  00000+0  10023-2 0  9996","line2":"2 63057  42.9993 123.7777 0001254 244.3378 115.7360 15.70829200 67668","category":"Starlink"}]}